[{"OBJECT_NAME":"ONEWEB-0584","OBJECT_ID":"2022-166K","EPOCH":"2026-02-10T16:10:16.453056","MEAN_MOTION":13.21823842,"ECCENTRICITY":0.00017525,"INCLINATION":87.9184,"RA_OF_ASC_NODE":269.2248,"ARG_OF_PERICENTER":72.9795,"MEAN_ANOMALY":287.1531,"EPHEMERIS_TYPE":0,"CLASSIFICATION_TYPE":"U","NORAD_CAT_ID":54651,"ELEMENT_SET_NO":999,"REV_AT_EPOCH":15480,"BSTAR":6.5639179e-5,"MEAN_MOTION_DOT":4.0e-7,"MEAN_MOTION_DDOT":0},{"OBJECT_NAME":"ONEWEB-0585","OBJECT_ID":"2022-166L","EPOCH":"2026-02-11T01:50:50.290080","MEAN_MOTION":13.21825779,"ECCENTRICITY":0.00015591,"INCLINATION":87.9184,"RA_OF_ASC_NODE":269.1285,"ARG_OF_PERICENTER":86.4691,"MEAN_ANOMALY":273.6621,"EPHEMERIS_TYPE":0,"CLASSIFICATION_TYPE":"U","NORAD_CAT_ID":54652,"ELEMENT_SET_NO":999,"REV_AT_EPOCH":15486,"BSTAR":8.2255018e-5,"MEAN_MOTION_DOT":4.7e-7,"MEAN_MOTION_DDOT":0},{"OBJECT_NAME":"ONEWEB-0586","OBJECT_ID":"2022-166M","EPOCH":"2026-02-11T00:20:48.248448","MEAN_MOTION":13.21825791,"ECCENTRICITY":0.00015111,"INCLINATION":87.9186,"RA_OF_ASC_NODE":269.1664,"ARG_OF_PERICENTER":80.202,"MEAN_ANOMALY":279.9284,"EPHEMERIS_TYPE":0,"CLASSIFICATION_TYPE":"U","NORAD_CAT_ID":54653,"ELEMENT_SET_NO":999,"REV_AT_EPOCH":15485,"BSTAR":-2.7079061e-5,"MEAN_MOTION_DOT":2.0e-8,"MEAN_MOTION_DDOT":0},{"OBJECT_NAME":"ONEWEB-0587","OBJECT_ID":"2022-166N","EPOCH":"2026-02-11T02:24:01.740960","MEAN_MOTION":13.21824935,"ECCENTRICITY":0.00015968,"INCLINATION":87.9196,"RA_OF_ASC_NODE":269.1107,"ARG_OF_PERICENTER":100.2042,"MEAN_ANOMALY":259.9272,"EPHEMERIS_TYPE":0,"CLASSIFICATION_TYPE":"U","NORAD_CAT_ID":54654,"ELEMENT_SET_NO":999,"REV_AT_EPOCH":15502,"BSTAR":3.49154e-7,"MEAN_MOTION_DOT":1.3e-7,"MEAN_MOTION_DDOT":0},{"OBJECT_NAME":"ONEWEB-0589","OBJECT_ID":"2022-166P","EPOCH":"2026-02-11T02:05:03.204960","MEAN_MOTION":13.21824208,"ECCENTRICITY":0.00019896,"INCLINATION":87.9186,"RA_OF_ASC_NODE":269.141,"ARG_OF_PERICENTER":56.0736,"MEAN_ANOMALY":304.0587,"EPHEMERIS_TYPE":0,"CLASSIFICATION_TYPE":"U","NORAD_CAT_ID":54655,"ELEMENT_SET_NO":999,"REV_AT_EPOCH":15488,"BSTAR":-0.00014755879,"MEAN_MOTION_DOT":-4.8e-7,"MEAN_MOTION_DDOT":0},{"OBJECT_NAME":"ONEWEB-0590","OBJECT_ID":"2022-166Q","EPOCH":"2026-02-11T00:51:23.914944","MEAN_MOTION":13.21824022,"ECCENTRICITY":0.0002045,"INCLINATION":87.9186,"RA_OF_ASC_NODE":269.1298,"ARG_OF_PERICENTER":86.3928,"MEAN_ANOMALY":273.7439,"EPHEMERIS_TYPE":0,"CLASSIFICATION_TYPE":"U","NORAD_CAT_ID":54656,"ELEMENT_SET_NO":999,"REV_AT_EPOCH":15486,"BSTAR":0.00017628653,"MEAN_MOTION_DOT":8.6e-7,"MEAN_MOTION_DDOT":0},{"OBJECT_NAME":"ONEWEB-0591","OBJECT_ID":"2022-166R","EPOCH":"2026-02-11T01:08:11.413248","MEAN_MOTION":13.21826061,"ECCENTRICITY":0.00016585,"INCLINATION":87.9182,"RA_OF_ASC_NODE":269.1507,"ARG_OF_PERICENTER":83.1116,"MEAN_ANOMALY":277.0206,"EPHEMERIS_TYPE":0,"CLASSIFICATION_TYPE":"U","NORAD_CAT_ID":54657,"ELEMENT_SET_NO":999,"REV_AT_EPOCH":15489,"BSTAR":-2.7896606e-5,"MEAN_MOTION_DOT":1.0e-8,"MEAN_MOTION_DDOT":0},{"OBJECT_NAME":"ONEWEB-0592","OBJECT_ID":"2022-166S","EPOCH":"2026-02-11T01:12:56.553120","MEAN_MOTION":13.2182552,"ECCENTRICITY":0.00016271,"INCLINATION":87.9192,"RA_OF_ASC_NODE":269.1183,"ARG_OF_PERICENTER":81.0951,"MEAN_ANOMALY":279.0367,"EPHEMERIS_TYPE":0,"CLASSIFICATION_TYPE":"U","NORAD_CAT_ID":54658,"ELEMENT_SET_NO":999,"REV_AT_EPOCH":15477,"BSTAR":5.4069132e-5,"MEAN_MOTION_DOT":3.5e-7,"MEAN_MOTION_DDOT":0},{"OBJECT_NAME":"ONEWEB-0593","OBJECT_ID":"2022-166T","EPOCH":"2026-02-11T01:46:05.855232","MEAN_MOTION":13.21824409,"ECCENTRICITY":0.00014608,"INCLINATION":87.9187,"RA_OF_ASC_NODE":269.1344,"ARG_OF_PERICENTER":81.1045,"MEAN_ANOMALY":279.0254,"EPHEMERIS_TYPE":0,"CLASSIFICATION_TYPE":"U","NORAD_CAT_ID":54659,"ELEMENT_SET_NO":999,"REV_AT_EPOCH":15488,"BSTAR":-7.402356e-6,"MEAN_MOTION_DOT":1.0e-7,"MEAN_MOTION_DDOT":0},{"OBJECT_NAME":"ONEWEB-0594","OBJECT_ID":"2022-166U","EPOCH":"2026-02-11T02:14:32.542944","MEAN_MOTION":13.21825593,"ECCENTRICITY":0.0001515,"INCLINATION":87.9183,"RA_OF_ASC_NODE":269.1493,"ARG_OF_PERICENTER":88.555,"MEAN_ANOMALY":271.5757,"EPHEMERIS_TYPE":0,"CLASSIFICATION_TYPE":"U","NORAD_CAT_ID":54660,"ELEMENT_SET_NO":999,"REV_AT_EPOCH":15490,"BSTAR":-9.3086952e-5,"MEAN_MOTION_DOT":-2.5e-7,"MEAN_MOTION_DDOT":0},{"OBJECT_NAME":"ONEWEB-0595","OBJECT_ID":"2022-166V","EPOCH":"2026-02-11T01:41:21.584544","MEAN_MOTION":13.21824607,"ECCENTRICITY":0.00016448,"INCLINATION":87.9185,"RA_OF_ASC_NODE":269.1256,"ARG_OF_PERICENTER":89.7183,"MEAN_ANOMALY":270.414,"EPHEMERIS_TYPE":0,"CLASSIFICATION_TYPE":"U","NORAD_CAT_ID":54661,"ELEMENT_SET_NO":999,"REV_AT_EPOCH":15487,"BSTAR":0.00014097535,"MEAN_MOTION_DOT":7.1e-7,"MEAN_MOTION_DDOT":0},{"OBJECT_NAME":"ONEWEB-0596","OBJECT_ID":"2022-166W","EPOCH":"2026-02-10T15:58:25.972032","MEAN_MOTION":13.21825475,"ECCENTRICITY":0.0001638,"INCLINATION":87.9185,"RA_OF_ASC_NODE":269.2244,"ARG_OF_PERICENTER":87.2273,"MEAN_ANOMALY":272.9049,"EPHEMERIS_TYPE":0,"CLASSIFICATION_TYPE":"U","NORAD_CAT_ID":54662,"ELEMENT_SET_NO":999,"REV_AT_EPOCH":15482,"BSTAR":0.0001214124,"MEAN_MOTION_DOT":6.3e-7,"MEAN_MOTION_DDOT":0},{"OBJECT_NAME":"ONEWEB-0597","OBJECT_ID":"2022-166X","EPOCH":"2026-02-11T02:26:22.593696","MEAN_MOTION":13.21824358,"ECCENTRICITY":0.00015746,"INCLINATION":87.9188,"RA_OF_ASC_NODE":269.1427,"ARG_OF_PERICENTER":80.1827,"MEAN_ANOMALY":279.9484,"EPHEMERIS_TYPE":0,"CLASSIFICATION_TYPE":"U","NORAD_CAT_ID":54663,"ELEMENT_SET_NO":999,"REV_AT_EPOCH":15488,"BSTAR":7.7648499e-5,"MEAN_MOTION_DOT":4.5e-7,"MEAN_MOTION_DDOT":0},{"OBJECT_NAME":"ONEWEB-0600","OBJECT_ID":"2022-166Y","EPOCH":"2026-02-10T15:06:17.337312","MEAN_MOTION":13.21823745,"ECCENTRICITY":0.00014465,"INCLINATION":87.9189,"RA_OF_ASC_NODE":269.228,"ARG_OF_PERICENTER":78.6958,"MEAN_ANOMALY":281.4338,"EPHEMERIS_TYPE":0,"CLASSIFICATION_TYPE":"U","NORAD_CAT_ID":54664,"ELEMENT_SET_NO":999,"REV_AT_EPOCH":15479,"BSTAR":-3.7290392e-5,"MEAN_MOTION_DOT":-2.0e-8,"MEAN_MOTION_DDOT":0},{"OBJECT_NAME":"ONEWEB-0601","OBJECT_ID":"2022-166Z","EPOCH":"2026-02-10T14:54:26.465760","MEAN_MOTION":13.21824041,"ECCENTRICITY":0.00016166,"INCLINATION":87.9186,"RA_OF_ASC_NODE":269.2471,"ARG_OF_PERICENTER":72.6775,"MEAN_ANOMALY":287.4535,"EPHEMERIS_TYPE":0,"CLASSIFICATION_TYPE":"U","NORAD_CAT_ID":54665,"ELEMENT_SET_NO":999,"REV_AT_EPOCH":15498,"BSTAR":-5.5288872e-5,"MEAN_MOTION_DOT":-1.0e-7,"MEAN_MOTION_DDOT":0},{"OBJECT_NAME":"ONEWEB-0602","OBJECT_ID":"2022-166AA","EPOCH":"2026-02-10T15:52:30.321984","MEAN_MOTION":13.21825058,"ECCENTRICITY":0.00012691,"INCLINATION":87.9187,"RA_OF_ASC_NODE":269.2439,"ARG_OF_PERICENTER":79.8875,"MEAN_ANOMALY":280.2402,"EPHEMERIS_TYPE":0,"CLASSIFICATION_TYPE":"U","NORAD_CAT_ID":54666,"ELEMENT_SET_NO":999,"REV_AT_EPOCH":15483,"BSTAR":0.00011709554,"MEAN_MOTION_DOT":6.1e-7,"MEAN_MOTION_DDOT":0},{"OBJECT_NAME":"ONEWEB-0603","OBJECT_ID":"2022-166AB","EPOCH":"2026-02-10T16:00:47.783808","MEAN_MOTION":13.21824951,"ECCENTRICITY":0.00015576,"INCLINATION":87.9196,"RA_OF_ASC_NODE":269.1864,"ARG_OF_PERICENTER":79.5432,"MEAN_ANOMALY":280.5877,"EPHEMERIS_TYPE":0,"CLASSIFICATION_TYPE":"U","NORAD_CAT_ID":54667,"ELEMENT_SET_NO":999,"REV_AT_EPOCH":15476,"BSTAR":4.8193021e-5,"MEAN_MOTION_DOT":3.3e-7,"MEAN_MOTION_DDOT":0}]
