ONEWEB-0584             
1 54651U 22166K   26041.67380154  .00000040  00000+0  65639-4 0  9991
2 54651  87.9184 269.2248 0001752  72.9795 287.1531 13.21823842154806
ONEWEB-0585             
1 54652U 22166L   26042.07697095  .00000047  00000+0  82255-4 0  9992
2 54652  87.9184 269.1285 0001559  86.4691 273.6621 13.21825779154864
ONEWEB-0586             
1 54653U 22166M   26042.01444732  .00000002  00000+0 -27079-4 0  9990
2 54653  87.9186 269.1664 0001511  80.2020 279.9284 13.21825791154851
ONEWEB-0587             
1 54654U 22166N   26042.10002015  .00000013  00000+0  34915-6 0  9995
2 54654  87.9196 269.1107 0001596 100.2042 259.9272 13.21824935155029
ONEWEB-0589             
1 54655U 22166P   26042.08684265 -.00000048  00000+0 -14756-3 0  9994
2 54655  87.9186 269.1410 0001989  56.0736 304.0587 13.21824208154887
ONEWEB-0590             
1 54656U 22166Q   26042.03569346  .00000086  00000+0  17629-3 0  9994
2 54656  87.9186 269.1298 0002045  86.3928 273.7439 13.21824022154865
ONEWEB-0591             
1 54657U 22166R   26042.04735432  .00000001  00000+0 -27897-4 0  9994
2 54657  87.9182 269.1507 0001658  83.1116 277.0206 13.21826061154895
ONEWEB-0592             
1 54658U 22166S   26042.05065455  .00000035  00000+0  54069-4 0  9994
2 54658  87.9192 269.1183 0001627  81.0951 279.0367 13.21825520154773
ONEWEB-0593             
1 54659U 22166T   26042.07367888  .00000010  00000+0 -74024-5 0  9990
2 54659  87.9187 269.1344 0001460  81.1045 279.0254 13.21824409154889
ONEWEB-0594             
1 54660U 22166U   26042.09343221 -.00000025  00000+0 -93087-4 0  9995
2 54660  87.9183 269.1493 0001515  88.5550 271.5757 13.21825593154908
ONEWEB-0595             
1 54661U 22166V   26042.07038871  .00000071  00000+0  14098-3 0  9999
2 54661  87.9185 269.1256 0001644  89.7183 270.4140 13.21824607154871
ONEWEB-0596             
1 54662U 22166W   26041.66557838  .00000063  00000+0  12141-3 0  9991
2 54662  87.9185 269.2244 0001638  87.2273 272.9049 13.21825475154820
ONEWEB-0597             
1 54663U 22166X   26042.10165039  .00000045  00000+0  77648-4 0  9994
2 54663  87.9188 269.1427 0001574  80.1827 279.9484 13.21824358154887
ONEWEB-0600             
1 54664U 22166Y   26041.62936733 -.00000002  00000+0 -37290-4 0  9992
2 54664  87.9189 269.2280 0001446  78.6958 281.4338 13.21823745154797
ONEWEB-0601             
1 54665U 22166Z   26041.62113965 -.00000010  00000+0 -55289-4 0  9994
2 54665  87.9186 269.2471 0001616  72.6775 287.4535 13.21824041154983
ONEWEB-0602             
1 54666U 22166AA  26041.66146206  .00000061  00000+0  11710-3 0  9997
2 54666  87.9187 269.2439 0001269  79.8875 280.2402 13.21825058154830
ONEWEB-0603             
1 54667U 22166AB  26041.66721972  .00000033  00000+0  48193-4 0  9992
2 54667  87.9196 269.1864 0001557  79.5432 280.5877 13.21824951154760
